CCSDS_OMM_VERS = 2.0
CREATION_DATE  = 
ORIGINATOR     = 

OBJECT_NAME    = H-2A R/B
OBJECT_ID      = 2006-002B
CENTER_NAME    = EARTH
REF_FRAME      = TEME
TIME_SYSTEM    = UTC
MEAN_ELEMENT_THEORY = SGP/SGP4

EPOCH          = 2026-03-26T23:04:27.629760
MEAN_MOTION    = 15.16791452
ECCENTRICITY   = .00523835
INCLINATION    = 98.2441
RA_OF_ASC_NODE = 234.4786
ARG_OF_PERICENTER = 181.9760
MEAN_ANOMALY   = 178.1273

EPHEMERIS_TYPE = 0
CLASSIFICATION_TYPE = U
NORAD_CAT_ID   = 28932
ELEMENT_SET_NO = 999
REV_AT_EPOCH   = 9705
BSTAR          = .61724052E-3
MEAN_MOTION_DOT = .1249E-3
MEAN_MOTION_DDOT = 0

CCSDS_OMM_VERS = 2.0
CREATION_DATE  = 
ORIGINATOR     = 

OBJECT_NAME    = RESURS-DK 1
OBJECT_ID      = 2006-021A
CENTER_NAME    = EARTH
REF_FRAME      = TEME
TIME_SYSTEM    = UTC
MEAN_ELEMENT_THEORY = SGP/SGP4

EPOCH          = 2026-03-26T09:30:51.944256
MEAN_MOTION    = 15.12849732
ECCENTRICITY   = .00009329
INCLINATION    = 69.9337
RA_OF_ASC_NODE = 193.8061
ARG_OF_PERICENTER = 66.6761
MEAN_ANOMALY   = 293.4503

EPHEMERIS_TYPE = 0
CLASSIFICATION_TYPE = U
NORAD_CAT_ID   = 29228
ELEMENT_SET_NO = 999
REV_AT_EPOCH   = 9005
BSTAR          = .1289563E-3
MEAN_MOTION_DOT = .2165E-4
MEAN_MOTION_DDOT = 0

CCSDS_OMM_VERS = 2.0
CREATION_DATE  = 
ORIGINATOR     = 

OBJECT_NAME    = CZ-4B R/B
OBJECT_ID      = 2006-046C
CENTER_NAME    = EARTH
REF_FRAME      = TEME
TIME_SYSTEM    = UTC
MEAN_ELEMENT_THEORY = SGP/SGP4

EPOCH          = 2026-03-26T13:28:31.036512
MEAN_MOTION    = 15.17068958
ECCENTRICITY   = .00325157
INCLINATION    = 97.5562
RA_OF_ASC_NODE = 130.4242
ARG_OF_PERICENTER = 206.5182
MEAN_ANOMALY   = 153.4389

EPHEMERIS_TYPE = 0
CLASSIFICATION_TYPE = U
NORAD_CAT_ID   = 29507
ELEMENT_SET_NO = 999
REV_AT_EPOCH   = 6260
BSTAR          = .19963729E-3
MEAN_MOTION_DOT = .3935E-4
MEAN_MOTION_DDOT = 0

CCSDS_OMM_VERS = 2.0
CREATION_DATE  = 
ORIGINATOR     = 

OBJECT_NAME    = CZ-2C R/B
OBJECT_ID      = 2007-010B
CENTER_NAME    = EARTH
REF_FRAME      = TEME
TIME_SYSTEM    = UTC
MEAN_ELEMENT_THEORY = SGP/SGP4

EPOCH          = 2026-03-26T21:58:40.906272
MEAN_MOTION    = 14.20252287
ECCENTRICITY   = .00579748
INCLINATION    = 98.3997
RA_OF_ASC_NODE = 198.3327
ARG_OF_PERICENTER = 243.5437
MEAN_ANOMALY   = 115.9785

EPHEMERIS_TYPE = 0
CLASSIFICATION_TYPE = U
NORAD_CAT_ID   = 31114
ELEMENT_SET_NO = 999
REV_AT_EPOCH   = 98216
BSTAR          = .84825781E-4
MEAN_MOTION_DOT = .143E-5
MEAN_MOTION_DDOT = 0

CCSDS_OMM_VERS = 2.0
CREATION_DATE  = 
ORIGINATOR     = 

OBJECT_NAME    = COSMO-SKYMED 1
OBJECT_ID      = 2007-023A
CENTER_NAME    = EARTH
REF_FRAME      = TEME
TIME_SYSTEM    = UTC
MEAN_ELEMENT_THEORY = SGP/SGP4

EPOCH          = 2026-03-26T23:32:42.308736
MEAN_MOTION    = 14.96657251
ECCENTRICITY   = .00009362
INCLINATION    = 97.8879
RA_OF_ASC_NODE = 277.1541
ARG_OF_PERICENTER = 94.5406
MEAN_ANOMALY   = 265.5922

EPHEMERIS_TYPE = 0
CLASSIFICATION_TYPE = U
NORAD_CAT_ID   = 31598
ELEMENT_SET_NO = 999
REV_AT_EPOCH   = 1749
BSTAR          = .27371022E-3
MEAN_MOTION_DOT = .3062E-4
MEAN_MOTION_DDOT = 0

CCSDS_OMM_VERS = 2.0
CREATION_DATE  = 
ORIGINATOR     = 

OBJECT_NAME    = COSMOS 2428
OBJECT_ID      = 2007-029A
CENTER_NAME    = EARTH
REF_FRAME      = TEME
TIME_SYSTEM    = UTC
MEAN_ELEMENT_THEORY = SGP/SGP4

EPOCH          = 2026-03-26T22:48:24.806304
MEAN_MOTION    = 14.12948216
ECCENTRICITY   = .00096785
INCLINATION    = 70.9438
RA_OF_ASC_NODE = 167.1173
ARG_OF_PERICENTER = 259.3820
MEAN_ANOMALY   = 100.6211

EPHEMERIS_TYPE = 0
CLASSIFICATION_TYPE = U
NORAD_CAT_ID   = 31792
ELEMENT_SET_NO = 999
REV_AT_EPOCH   = 96653
BSTAR          = .4221999E-5
MEAN_MOTION_DOT = -.4E-6
MEAN_MOTION_DDOT = 0

CCSDS_OMM_VERS = 2.0
CREATION_DATE  = 
ORIGINATOR     = 

OBJECT_NAME    = SL-16 R/B
OBJECT_ID      = 2007-029B
CENTER_NAME    = EARTH
REF_FRAME      = TEME
TIME_SYSTEM    = UTC
MEAN_ELEMENT_THEORY = SGP/SGP4

EPOCH          = 2026-03-26T16:30:34.164288
MEAN_MOTION    = 14.14842984
ECCENTRICITY   = .00026193
INCLINATION    = 70.9751
RA_OF_ASC_NODE = 136.6550
ARG_OF_PERICENTER = 277.7542
MEAN_ANOMALY   = 218.1714

EPHEMERIS_TYPE = 0
CLASSIFICATION_TYPE = U
NORAD_CAT_ID   = 31793
ELEMENT_SET_NO = 999
REV_AT_EPOCH   = 96777
BSTAR          = .80668888E-4
MEAN_MOTION_DOT = .108E-5
MEAN_MOTION_DDOT = 0

CCSDS_OMM_VERS = 2.0
CREATION_DATE  = 
ORIGINATOR     = 

OBJECT_NAME    = KORONAS-FOTON
OBJECT_ID      = 2009-003A
CENTER_NAME    = EARTH
REF_FRAME      = TEME
TIME_SYSTEM    = UTC
MEAN_ELEMENT_THEORY = SGP/SGP4

EPOCH          = 2026-03-26T22:39:08.988192
MEAN_MOTION    = 15.43769277
ECCENTRICITY   = .00117942
INCLINATION    = 82.4277
RA_OF_ASC_NODE = 257.9306
ARG_OF_PERICENTER = 93.8511
MEAN_ANOMALY   = 266.4085

EPHEMERIS_TYPE = 0
CLASSIFICATION_TYPE = U
NORAD_CAT_ID   = 33504
ELEMENT_SET_NO = 999
REV_AT_EPOCH   = 94840
BSTAR          = .30198481E-3
MEAN_MOTION_DOT = .1373E-3
MEAN_MOTION_DDOT = 0

CCSDS_OMM_VERS = 2.0
CREATION_DATE  = 
ORIGINATOR     = 

OBJECT_NAME    = CZ-2C R/B
OBJECT_ID      = 2011-030B
CENTER_NAME    = EARTH
REF_FRAME      = TEME
TIME_SYSTEM    = UTC
MEAN_ELEMENT_THEORY = SGP/SGP4

EPOCH          = 2026-03-26T21:44:49.690752
MEAN_MOTION    = 14.81281450
ECCENTRICITY   = .00511779
INCLINATION    = 97.8572
RA_OF_ASC_NODE = 42.8285
ARG_OF_PERICENTER = 295.1870
MEAN_ANOMALY   = 131.2645

EPHEMERIS_TYPE = 0
CLASSIFICATION_TYPE = U
NORAD_CAT_ID   = 37731
ELEMENT_SET_NO = 999
REV_AT_EPOCH   = 79264
BSTAR          = .19786964E-3
MEAN_MOTION_DOT = .1522E-4
MEAN_MOTION_DDOT = 0

CCSDS_OMM_VERS = 2.0
CREATION_DATE  = 
ORIGINATOR     = 

OBJECT_NAME    = H-2A R/B
OBJECT_ID      = 2012-025E
CENTER_NAME    = EARTH
REF_FRAME      = TEME
TIME_SYSTEM    = UTC
MEAN_ELEMENT_THEORY = SGP/SGP4

EPOCH          = 2026-03-26T17:25:49.680480
MEAN_MOTION    = 14.95284150
ECCENTRICITY   = .00427054
INCLINATION    = 98.4760
RA_OF_ASC_NODE = 54.1408
ARG_OF_PERICENTER = 256.5869
MEAN_ANOMALY   = 103.0588

EPHEMERIS_TYPE = 0
CLASSIFICATION_TYPE = U
NORAD_CAT_ID   = 38341
ELEMENT_SET_NO = 999
REV_AT_EPOCH   = 75076
BSTAR          = .31579164E-3
MEAN_MOTION_DOT = .3471E-4
MEAN_MOTION_DDOT = 0

CCSDS_OMM_VERS = 2.0
CREATION_DATE  = 
ORIGINATOR     = 

OBJECT_NAME    = SHIJIAN-16 (SJ-16)
OBJECT_ID      = 2013-057A
CENTER_NAME    = EARTH
REF_FRAME      = TEME
TIME_SYSTEM    = UTC
MEAN_ELEMENT_THEORY = SGP/SGP4

EPOCH          = 2026-03-26T23:48:01.279008
MEAN_MOTION    = 14.92413612
ECCENTRICITY   = .00152628
INCLINATION    = 74.9723
RA_OF_ASC_NODE = 152.3357
ARG_OF_PERICENTER = 67.6104
MEAN_ANOMALY   = 292.6699

EPHEMERIS_TYPE = 0
CLASSIFICATION_TYPE = U
NORAD_CAT_ID   = 39358
ELEMENT_SET_NO = 999
REV_AT_EPOCH   = 67408
BSTAR          = .14631503E-3
MEAN_MOTION_DOT = .1473E-4
MEAN_MOTION_DDOT = 0

CCSDS_OMM_VERS = 2.0
CREATION_DATE  = 
ORIGINATOR     = 

OBJECT_NAME    = SL-4 R/B
OBJECT_ID      = 2014-021B
CENTER_NAME    = EARTH
REF_FRAME      = TEME
TIME_SYSTEM    = UTC
MEAN_ELEMENT_THEORY = SGP/SGP4

EPOCH          = 2026-03-25T19:01:41.820096
MEAN_MOTION    = 15.39717175
ECCENTRICITY   = .00959711
INCLINATION    = 51.6053
RA_OF_ASC_NODE = 258.6863
ARG_OF_PERICENTER = 161.6166
MEAN_ANOMALY   = 198.8326

EPHEMERIS_TYPE = 0
CLASSIFICATION_TYPE = U
NORAD_CAT_ID   = 39679
ELEMENT_SET_NO = 999
REV_AT_EPOCH   = 65875
BSTAR          = .37834437E-3
MEAN_MOTION_DOT = .17461E-3
MEAN_MOTION_DDOT = 0

